GLOBALSTAR M057         
1 25943U 99058A   25351.23806047 -.00000055  00000+0  34276-3 0  9995
2 25943  51.9952 188.7031 0003295  46.1137 313.9984 12.24832058189364
GLOBALSTAR M059         
1 25944U 99058B   25351.16539784 -.00000101  00000+0 -18623-3 0  9990
2 25944  52.0032  72.1521 0000434 120.8104 250.5322 11.99988194596012
GLOBALSTAR M056         
1 25945U 99058C   25351.36365251 -.00000105  00000+0 -20480-3 0  9997
2 25945  51.9975  68.8801 0001348 168.0613 267.9633 12.04780998184709
GLOBALSTAR M031         
1 25946U 99058D   25351.31764485 -.00000014  00000+0  77284-3 0  9997
2 25946  51.9981 310.3664 0000953 181.2700 328.7985 12.16044744186820
GLOBALSTAR M039         
1 25961U 99062A   25351.30794059 -.00000068  00000+0  19968-3 0  9992
2 25961  51.9857  70.9587 0002675  49.1212 310.9886 12.62339806203342
GLOBALSTAR M034         
1 25962U 99062B   25351.10681677 -.00000041  00000+0  62976-3 0  9990
2 25962  51.9869 255.9011 0015095  29.0679 109.9184 11.79454092159975
GLOBALSTAR M029         
1 25963U 99062C   25351.30060765 -.00000065  00000+0  26327-3 0  9998
2 25963  51.9831 319.6666 0002530 108.3310  33.1901 11.99904251191107
GLOBALSTAR M061         
1 25964U 99062D   25351.33423949 -.00000103  00000+0 -36819-3 0  9990
2 25964  51.9801  81.7729 0005133 309.2458  93.2222 11.76777871142749
